{
  "type": "FeatureCollection",
  "features": [
    {
      "type": "Feature",
      "properties": {
        "norad_id": 30445,
        "name": "FENGYUN 1C DEB",
        "group": "fengyun-1c-debris",
        "lat": 43.10079567769989,
        "lon": -57.27737765118423,
        "alt_km": 691.05454884359,
        "timestamp": "2025-12-25T03:55:56.634403+00:00",
        "meta_object_name": "FENGYUN 1C DEB",
        "meta_object_id": "1999-025AFG",
        "meta_epoch": "2025-12-24T19:26:49.081056",
        "meta_mean_motion": 14.48815262,
        "meta_eccentricity": 0.0105165,
        "meta_inclination": 98.8372,
        "meta_ra_of_asc_node": 310.724,
        "meta_arg_of_pericenter": 342.1452,
        "meta_mean_anomaly": 17.6055,
        "meta_ephemeris_type": 0,
        "meta_classification_type": "U",
        "meta_norad_cat_id": 30445,
        "meta_element_set_no": 999,
        "meta_rev_at_epoch": 99359,
        "meta_bstar": 0.00081171,
        "meta_mean_motion_dot": 3.236e-05,
        "meta_mean_motion_ddot": 0,
        "tle_line1": "1 30445U 99025AFG 25358.81029029  .00003236  00000+0  81171-3 0  9999",
        "tle_line2": "2 30445  98.8372 310.7240 0105165 342.1452  17.6055 14.48815262993591"
      },
      "geometry": {
        "type": "Point",
        "coordinates": [
          -57.27737765118423,
          43.10079567769989
        ]
      }
    },
    {
      "type": "Feature",
      "properties": {
        "norad_id": 30446,
        "name": "FENGYUN 1C DEB",
        "group": "fengyun-1c-debris",
        "lat": 3.376349575329118,
        "lon": 81.32216845577206,
        "alt_km": 731.963087410425,
        "timestamp": "2025-12-25T03:55:56.634413+00:00",
        "meta_object_name": "FENGYUN 1C DEB",
        "meta_object_id": "1999-025AFH",
        "meta_epoch": "2025-12-24T16:16:57.070848",
        "meta_mean_motion": 14.44852039,
        "meta_eccentricity": 0.0033984,
        "meta_inclination": 98.6128,
        "meta_ra_of_asc_node": 81.3426,
        "meta_arg_of_pericenter": 62.5811,
        "meta_mean_anomaly": 297.883,
        "meta_ephemeris_type": 0,
        "meta_classification_type": "U",
        "meta_norad_cat_id": 30446,
        "meta_element_set_no": 999,
        "meta_rev_at_epoch": 98349,
        "meta_bstar": 0.0016308,
        "meta_mean_motion_dot": 5.671e-05,
        "meta_mean_motion_ddot": 0,
        "tle_line1": "1 30446U 99025AFH 25358.67843832  .00005671  00000+0  16308-2 0  9994",
        "tle_line2": "2 30446  98.6128  81.3426 0033984  62.5811 297.8830 14.44852039983497"
      },
      "geometry": {
        "type": "Point",
        "coordinates": [
          81.32216845577206,
          3.376349575329118
        ]
      }
    },
    {
      "type": "Feature",
      "properties": {
        "norad_id": 30447,
        "name": "FENGYUN 1C DEB",
        "group": "fengyun-1c-debris",
        "lat": -63.20365561497956,
        "lon": -120.11392081571238,
        "alt_km": 688.0989189973297,
        "timestamp": "2025-12-25T03:55:56.634426+00:00",
        "meta_object_name": "FENGYUN 1C DEB",
        "meta_object_id": "1999-025AFJ",
        "meta_epoch": "2025-12-24T13:39:31.680288",
        "meta_mean_motion": 14.56840373,
        "meta_eccentricity": 0.0060176,
        "meta_inclination": 98.9703,
        "meta_ra_of_asc_node": 221.0212,
        "meta_arg_of_pericenter": 355.7838,
        "meta_mean_anomaly": 62.8483,
        "meta_ephemeris_type": 0,
        "meta_classification_type": "U",
        "meta_norad_cat_id": 30447,
        "meta_element_set_no": 999,
        "meta_rev_at_epoch": 98268,
        "meta_bstar": 0.0027596,
        "meta_mean_motion_dot": 0.00012639,
        "meta_mean_motion_ddot": 0,
        "tle_line1": "1 30447U 99025AFJ 25358.56911667  .00012639  00000+0  27596-2 0  9998",
        "tle_line2": "2 30447  98.9703 221.0212 0060176 355.7838  62.8483 14.56840373982680"
      },
      "geometry": {
        "type": "Point",
        "coordinates": [
          -120.11392081571238,
          -63.20365561497956
        ]
      }
    },
    {
      "type": "Feature",
      "properties": {
        "norad_id": 30448,
        "name": "FENGYUN 1C DEB",
        "group": "fengyun-1c-debris",
        "lat": 43.93806842761541,
        "lon": -80.3411097732098,
        "alt_km": 782.0569977807472,
        "timestamp": "2025-12-25T03:55:56.634438+00:00",
        "meta_object_name": "FENGYUN 1C DEB",
        "meta_object_id": "1999-025AFK",
        "meta_epoch": "2025-12-24T19:30:58.567104",
        "meta_mean_motion": 14.35250592,
        "meta_eccentricity": 0.0016914,
        "meta_inclination": 98.8297,
        "meta_ra_of_asc_node": 90.686,
        "meta_arg_of_pericenter": 333.2569,
        "meta_mean_anomaly": 151.1449,
        "meta_ephemeris_type": 0,
        "meta_classification_type": "U",
        "meta_norad_cat_id": 30448,
        "meta_element_set_no": 999,
        "meta_rev_at_epoch": 97511,
        "meta_bstar": 0.0018717,
        "meta_mean_motion_dot": 5.323e-05,
        "meta_mean_motion_ddot": 0,
        "tle_line1": "1 30448U 99025AFK 25358.81317786  .00005323  00000+0  18717-2 0  9996",
        "tle_line2": "2 30448  98.8297  90.6860 0016914 333.2569 151.1449 14.35250592975119"
      },
      "geometry": {
        "type": "Point",
        "coordinates": [
          -80.3411097732098,
          43.93806842761541
        ]
      }
    },
    {
      "type": "Feature",
      "properties": {
        "norad_id": 30450,
        "name": "FENGYUN 1C DEB",
        "group": "fengyun-1c-debris",
        "lat": 7.770757442133229,
        "lon": 11.81529596237579,
        "alt_km": 815.6930238694658,
        "timestamp": "2025-12-25T03:55:56.634448+00:00",
        "meta_object_name": "FENGYUN 1C DEB",
        "meta_object_id": "1999-025AFM",
        "meta_epoch": "2025-12-24T00:13:18.228000",
        "meta_mean_motion": 14.61854716,
        "meta_eccentricity": 0.01896069,
        "meta_inclination": 98.08,
        "meta_ra_of_asc_node": 11.7968,
        "meta_arg_of_pericenter": 172.8396,
        "meta_mean_anomaly": 243.0961,
        "meta_ephemeris_type": 0,
        "meta_classification_type": "U",
        "meta_norad_cat_id": 30450,
        "meta_element_set_no": 999,
        "meta_rev_at_epoch": 99707,
        "meta_bstar": 0.00054810885,
        "meta_mean_motion_dot": 3.488e-05,
        "meta_mean_motion_ddot": 0,
        "tle_line1": "1 30450U 99025AFM 25358.00923875  .00003488  00000+0  54811-3 0  9998",
        "tle_line2": "2 30450  98.0800  11.7968 0189606 172.8396 243.0961 14.61854716997077"
      },
      "geometry": {
        "type": "Point",
        "coordinates": [
          11.81529596237579,
          7.770757442133229
        ]
      }
    },
    {
      "type": "Feature",
      "properties": {
        "norad_id": 30452,
        "name": "FENGYUN 1C DEB",
        "group": "fengyun-1c-debris",
        "lat": -34.3681965146727,
        "lon": 145.94132687065593,
        "alt_km": 694.6590372509118,
        "timestamp": "2025-12-25T03:55:56.634459+00:00",
        "meta_object_name": "FENGYUN 1C DEB",
        "meta_object_id": "1999-025AFP",
        "meta_epoch": "2025-12-23T23:09:33.170400",
        "meta_mean_motion": 14.64993236,
        "meta_eccentricity": 0.0049324,
        "meta_inclination": 99.3222,
        "meta_ra_of_asc_node": 138.1338,
        "meta_arg_of_pericenter": 219.1968,
        "meta_mean_anomaly": 266.1317,
        "meta_ephemeris_type": 0,
        "meta_classification_type": "U",
        "meta_norad_cat_id": 30452,
        "meta_element_set_no": 999,
        "meta_rev_at_epoch": 98271,
        "meta_bstar": 0.0040694,
        "meta_mean_motion_dot": 0.00022202,
        "meta_mean_motion_ddot": 0,
        "tle_line1": "1 30452U 99025AFP 25357.96496725  .00022202  00000+0  40694-2 0  9991",
        "tle_line2": "2 30452  99.3222 138.1338 0049324 219.1968 266.1317 14.64993236982718"
      },
      "geometry": {
        "type": "Point",
        "coordinates": [
          145.94132687065593,
          -34.3681965146727
        ]
      }
    },
    {
      "type": "Feature",
      "properties": {
        "norad_id": 30453,
        "name": "FENGYUN 1C DEB",
        "group": "fengyun-1c-debris",
        "lat": 39.230009191717265,
        "lon": 63.65367314173706,
        "alt_km": 878.6167139314475,
        "timestamp": "2025-12-25T03:55:56.634470+00:00",
        "meta_object_name": "FENGYUN 1C DEB",
        "meta_object_id": "1999-025AFQ",
        "meta_epoch": "2025-12-24T04:24:50.764032",
        "meta_mean_motion": 14.24836709,
        "meta_eccentricity": 0.01162096,
        "meta_inclination": 98.8118,
        "meta_ra_of_asc_node": 69.946,
        "meta_arg_of_pericenter": 193.4482,
        "meta_mean_anomaly": 223.447,
        "meta_ephemeris_type": 0,
        "meta_classification_type": "U",
        "meta_norad_cat_id": 30453,
        "meta_element_set_no": 999,
        "meta_rev_at_epoch": 97397,
        "meta_bstar": 0.001591509,
        "meta_mean_motion_dot": 3.941e-05,
        "meta_mean_motion_ddot": 0,
        "tle_line1": "1 30453U 99025AFQ 25358.18392088  .00003941  00000+0  15915-2 0  9991",
        "tle_line2": "2 30453  98.8118  69.9460 0116209 193.4482 223.4470 14.24836709973977"
      },
      "geometry": {
        "type": "Point",
        "coordinates": [
          63.65367314173706,
          39.230009191717265
        ]
      }
    }
  ]
}